{"fetched_at":"2026-06-02T16:20:08Z","count":4335,"tles":[{"name":"STARLINK-31708","line1":"1 59439U 24065U   26152.55866526  .00002156  00000+0  84936-4 0  9993","line2":"2 59439  53.1602 251.8605 0001149  95.1333 264.9799 15.30188114121771","category":"Starlink"},{"name":"STARLINK-35198","line1":"1 65672U 25211W   26152.67578095 -.00004669  00000+0 -31987-3 0  9997","line2":"2 65672  97.4203 196.3824 0000608  85.5676 274.5620 15.05642056 39683","category":"Starlink"},{"name":"STARLINK-33579","line1":"1 62764U 25015G   26152.64323590  .00031212  00000+0  10132-2 0  9993","line2":"2 62764  53.1617 291.8768 0001247  89.1117 271.0027 15.31703569 77342","category":"Starlink"},{"name":"TITAN 34B AGENA D DEB","line1":"1 25588U 83078E   26104.33992940  .00000092  00000+0  13680-3 0  9997","line2":"2 25588  63.5035  55.8956 7234720 272.7400  14.2691  2.20154434 55533","category":"Other"},{"name":"ARABSAT-6A","line1":"1 44186U 19021A   26152.00613851  .00000166  00000+0  00000+0 0  9997","line2":"2 44186   0.0561  17.1584 0001451   6.5759 258.4728  1.00270573 25992","category":"Other"},{"name":"ONEWEB-0715","line1":"1 55176U 23004AN  26152.62455093  .00000481  00000+0  13227-2 0  9992","line2":"2 55176  87.8902  24.1667 0001605 108.3989 251.7314 13.11417860163821","category":"Other"},{"name":"COSMOS 2251 DEB","line1":"1 34141U 93036LN  26104.57412948  .00002054  00000+0  51854-3 0  9993","line2":"2 34141  74.0091 157.7698 0051145 217.2683 293.6531 14.50929046894745","category":"Other"},{"name":"ONEWEB-0376","line1":"1 49302U 21090Z   26152.41838042  .00000033  00000+0  49110-4 0  9990","line2":"2 49302  87.9166 308.1079 0001621  92.4562 267.6757 13.19723729224375","category":"Other"},{"name":"INTELSAT 28 (IS-28)","line1":"1 37392U 11016A   26152.90842459 -.00000213  00000+0  00000+0 0  9995","line2":"2 37392   1.7670  82.7999 0004126 347.1119 115.8484  1.00271906 53139","category":"Other"},{"name":"STARLINK-3882","line1":"1 52475U 22049AA  26152.12384223  .00000105  00000+0  24698-4 0  9999","line2":"2 52475  53.1916  44.7736 0001384  95.3127 264.8023 15.08837554224845","category":"Starlink"},{"name":"STARLINK-30895","line1":"1 58418U 23180S   26152.69000581 -.00001163  00000+0 -32774-4 0  9994","line2":"2 58418  43.0005 298.0837 0000627 239.2025 120.8765 15.27566400140364","category":"Starlink"},{"name":"FENGYUN 1C DEB","line1":"1 30471U 99025AGJ 26104.19464390  .00001595  00000+0  83151-3 0  9999","line2":"2 30471  99.0466 198.3432 0080068 267.8759 150.0724 14.14393497981739","category":"Weather"},{"name":"STARLINK-1708","line1":"1 46580U 20070BA  23362.45334349 -.00002339  00000+0 -13822-3 0  9990","line2":"2 46580  53.0531 162.9968 0001453 105.1721 254.9428 15.06385491178814","category":"Starlink"},{"name":"STARLINK-30071","line1":"1 56708U 23067W   26152.88037918  .00007429  00000+0  27921-3 0  9999","line2":"2 56708  43.0026 159.1954 0002361 285.3311  74.7280 15.27578812168539","category":"Starlink"},{"name":"STARLINK-32412","line1":"1 61680U 24193V   26152.13898644 -.00006642  00000+0 -20237-3 0  9995","line2":"2 61680  53.1595  63.3515 0000781  77.3467 282.7622 15.31716003 89300","category":"Starlink"},{"name":"STARLINK-31524","line1":"1 59506U 24071Y   26152.51540735  .00001527  00000+0  65024-4 0  9990","line2":"2 59506  43.0019 219.3991 0001207 259.1300 100.9416 15.27573140121109","category":"Starlink"},{"name":"STARLINK-34808","line1":"1 65745U 25216M   26152.90850499  .00022609  00000+0  77291-3 0  9990","line2":"2 65745  53.1590 301.2937 0000934  94.4520 265.6587 15.30210309 39417","category":"Starlink"},{"name":"STARLINK-32727","line1":"1 62828U 25018Y   26152.62869317  .00021848  00000+0  65623-3 0  9997","line2":"2 62828  53.1602 275.8896 0001038  95.7694 264.3427 15.34382803 77023","category":"Starlink"},{"name":"LEMUR-2-EMARCHIA","line1":"1 68492U 26067CE  26152.44144218  .00006481  00000+0  65225-3 0  9995","line2":"2 68492  97.7564 110.8670 0005493 100.0779 260.1060 14.91516620  9376","category":"Other"},{"name":"COSMOS 2538","line1":"1 44424U 19039D   26152.97189128  .00007938  00000+0  35669-3 0  9999","line2":"2 44424  97.5882 232.2637 0043740  97.7338 262.8867 15.20547564377598","category":"Other"},{"name":"STARLINK-5316","line1":"1 55305U 23010AN  26152.46749127 -.00000390  00000+0 -24900-4 0  9992","line2":"2 55305  69.9999 173.4099 0003508 264.4337  95.6422 14.98329032185822","category":"Starlink"},{"name":"COSMOS 2251 DEB","line1":"1 34409U 93036RA  26104.90084890  .00000456  00000+0  10086-3 0  9994","line2":"2 34409  74.0621  72.8692 0078840 116.8503 266.7076 14.58313775909889","category":"Other"},{"name":"STARLINK-3121","line1":"1 49428U 21104W   26152.44672207 -.00003209  00000+0 -18356-3 0  9994","line2":"2 49428  53.1912 213.0200 0001330  76.9938 283.1203 15.08850407251282","category":"Starlink"},{"name":"COSMOS 2251 DEB","line1":"1 37510U 93036BMP 23177.06352116  .00018371  00000+0  23253-2 0  9997","line2":"2 37510  74.0095  71.8854 0029697  75.7396 284.7076 14.81463080738317","category":"Other"},{"name":"STARLINK-3930","line1":"1 52568U 22051AM  26152.08886234 -.00002952  00000+0 -16747-3 0  9998","line2":"2 52568  53.1904 104.7125 0001469  94.5720 265.5440 15.08833087224172","category":"Starlink"},{"name":"STARLINK-31000","line1":"1 58488U 23186R   26152.76048650  .00000525  00000+0  28613-4 0  9990","line2":"2 58488  43.0049 308.8699 0002508 251.6401 108.4178 15.27567370138747","category":"Starlink"},{"name":"ELECTRON R/B","line1":"1 64693U 25140C   25194.18246881  .14869677  90964-6  49202-3 0  9991","line2":"2 64693  95.9534  40.6547 0053539 171.7150 330.7832 16.36800101  2349","category":"Other"},{"name":"FENGYUN 1C DEB","line1":"1 30556U 99025AKW 26104.89929729  .00000198  00000+0  15631-3 0  9998","line2":"2 30556  98.7950  98.5966 0067380 256.2183 171.6738 14.01546638979829","category":"Weather"},{"name":"STARLINK-1830","line1":"1 46727U 20073BK  26152.10401544  .00091579  00000+0  73173-3 0  9997","line2":"2 46727  53.0345 134.8420 0006385  21.9918 338.1371 15.70357295311007","category":"Starlink"},{"name":"STARLINK-6231","line1":"1 56779U 23078N   26152.34160043  .00000507  00000+0  50260-4 0  9999","line2":"2 56779  69.9995 113.5461 0003263 267.4634  92.6152 14.98330122165695","category":"Starlink"},{"name":"2024-199K","line1":"1 61744U 24199K   26152.89007002  .00036520  00000+0  62658-3 0  9994","line2":"2 61744  97.2985  27.8851 0006938 345.8813  14.2244 15.51070601131999","category":"Other"},{"name":"STARLINK-36521","line1":"1 67507U 26012Q   26152.62789533  .00027686  00000+0  10081-2 0  9995","line2":"2 67507  42.9509 200.0047 0014708  57.6228 302.6045 15.27604495 20600","category":"Starlink"},{"name":"STARLINK-31587","line1":"1 59570U 24076G   26152.59934591 -.00000430  00000+0 -61262-5 0  9996","line2":"2 59570  43.0005 255.2906 0000801 220.2959 139.7834 15.27566477119351","category":"Starlink"},{"name":"STARLINK-35224","line1":"1 65811U 25218W   26152.57058574  .00005296  00000+0  37070-3 0  9997","line2":"2 65811  97.4232  15.1295 0002237  93.4336 266.7147 15.05659564 37598","category":"Starlink"},{"name":"STARLINK-32878","line1":"1 62892U 25024P   26152.24835285  .00017146  00000+0  63094-3 0  9996","line2":"2 62892  42.9975 213.6002 0002923 294.3199  65.7347 15.27587843 75040","category":"Starlink"},{"name":"STARLINK-37144","line1":"1 68556U 26070Q   26152.66952835  .00092433  00000+0  27042-2 0  9992","line2":"2 68556  53.1598 331.6999 0002243 121.5030 238.6193 15.34505512  9424","category":"Starlink"},{"name":"MUOS-3","line1":"1 40374U 15002A   26152.85273069 -.00000118  00000+0  00000+0 0  9991","line2":"2 40374   4.4922  43.4574 0051480 178.8631 319.5553  1.00272432 41434","category":"Other"},{"name":"STARLINK-4506","line1":"1 53554U 22101AD  26152.12247342  .00000091  00000+0  23818-4 0  9994","line2":"2 53554  53.1927  49.5716 0001144  98.2070 261.9052 15.08835470208904","category":"Starlink"},{"name":"STARLINK-2354","line1":"1 47894U 21021AL  26152.55140268  .00044957  00000+0  13991-2 0  9998","line2":"2 47894  53.1513 237.9444 0001196  54.1417 305.9696 15.32881672289037","category":"Starlink"},{"name":"STARLINK-5572","line1":"1 55378U 23013AZ  26152.22945519  .00001003  00000+0  45970-4 0  9992","line2":"2 55378  43.0034 209.3895 0001566 265.8986  94.1687 15.27579745184248","category":"Starlink"},{"name":"COSMOS 2251 DEB","line1":"1 34553U 93036UP  26104.72808343  .00001720  00000+0  37026-3 0  9999","line2":"2 34553  74.0253 317.6157 0017488   9.1416 110.0396 14.59196311898894","category":"Other"},{"name":"STARLINK-3248","line1":"1 49748U 21115AA  26152.33996412 -.00000973  00000+0 -43036-4 0  9995","line2":"2 49748  53.1930 133.1652 0001284  75.6747 284.4387 15.08842171248172","category":"Starlink"},{"name":"GLOBALSTAR M089","line1":"1 37744U 11033F   26152.17490163 -.00000067  00000+0  20245-3 0  9999","line2":"2 37744  51.9910 198.5582 0000444 111.5914 283.4167 12.62266851688769","category":"Other"},{"name":"STARLINK-3985","line1":"1 52644U 22052AY  26152.52864793 -.00008185  00000+0 -49729-3 0  9999","line2":"2 52644  53.1894 242.7367 0001160 107.5753 252.5366 15.08799525223782","category":"Starlink"},{"name":"STARLINK-31046","line1":"1 58552U 23192X   26152.09111860  .00001692  00000+0  61208-4 0  9992","line2":"2 58552  53.1608  34.6996 0001616 100.2492 259.8693 15.34393464138768","category":"Starlink"},{"name":"STARLINK-34593","line1":"1 64758U 25147D   26152.46010358  .00021392  00000+0  64241-3 0  9998","line2":"2 64758  53.1572 212.4943 0000963  85.5621 274.5491 15.34402344 51597","category":"Starlink"},{"name":"FENGYUN 1C DEB","line1":"1 30654U 99025APL 26103.23090562  .00001206  00000+0  61231-3 0  9996","line2":"2 30654  99.2473  36.2946 0035263 114.2756 246.2107 14.17679997984013","category":"Weather"},{"name":"FLOCK 4V-26","line1":"1 46825U 20061BQ  23302.16319517  .02657348  16144-1  27996-2 0  9994","line2":"2 46825  97.3275  19.3603 0005558 292.8224  67.2475 16.14530708166968","category":"Other"}]}